[{"OBJECT_NAME":"YAOGAN-28","OBJECT_ID":"2015-064A","EPOCH":"2026-03-09T23:07:10.370208","MEAN_MOTION":15.26008,"ECCENTRICITY":0.00111911,"INCLINATION":97.2901,"RA_OF_ASC_NODE":209.4389,"ARG_OF_PERICENTER":175.4532,"MEAN_ANOMALY":184.6811,"EPHEMERIS_TYPE":0,"CLASSIFICATION_TYPE":"U","NORAD_CAT_ID":41026,"ELEMENT_SET_NO":999,"REV_AT_EPOCH":57554,"BSTAR":0.00039691695,"MEAN_MOTION_DOT":0.00010159,"MEAN_MOTION_DDOT":0},{"OBJECT_NAME":"STARLINK-35879","OBJECT_ID":"2025-288B","EPOCH":"2026-03-09T06:40:59.838240","MEAN_MOTION":15.27572678,"ECCENTRICITY":0.00017249,"INCLINATION":43.0038,"RA_OF_ASC_NODE":25.854,"ARG_OF_PERICENTER":255.1565,"MEAN_ANOMALY":104.9096,"EPHEMERIS_TYPE":0,"CLASSIFICATION_TYPE":"U","NORAD_CAT_ID":66960,"ELEMENT_SET_NO":999,"REV_AT_EPOCH":1522,"BSTAR":0.0012164535,"MEAN_MOTION_DOT":0.00033356,"MEAN_MOTION_DDOT":0}]
